COSMOS 1933             
1 18958U 88020A   25357.96521876  .00004220  00000+0  21085-3 0  9991
2 18958  82.5142 325.7862 0006278  98.3623 261.8322 15.17198466 38746
SL-3 R/B                
1 19046U 88032B   25358.19351903  .00005139  00000+0  24751-3 0  9994
2 19046  97.5096 336.8355 0027866 134.1033 226.2501 15.18851329 40640
SL-16 R/B               
1 19120U 88039B   25358.09163587  .00000036  00000+0  39636-4 0  9992
2 19120  71.0131 228.3964 0019535  96.8324 263.5025 14.19599441947658
COSMOS 1953             
1 19210U 88050A   25351.75027580  .00004793  00000+0  17925-3 0  9993
2 19210  82.5093 240.5536 0013540  56.0210 304.2313 15.26995692 25270
SL-8 R/B                
1 19257U 88053B   25358.16094021  .00000259  00000+0  92337-4 0  9997
2 19257  74.0469 251.6707 0018948  91.5172  19.6799 14.38865919965734
COSMOS 1975             
1 19573U 88093A   25358.05536367  .00007287  00000+0  27630-3 0  9995
2 19573  82.5189 193.4994 0013044  77.3931 282.8766 15.26621750  7866
SL-14 R/B               
1 19574U 88093B   25358.29388466  .00000570  00000+0  62984-4 0  9997
2 19574  82.5315 112.8249 0019263 288.9503 136.4077 14.85561225989840
SL-16 R/B               
1 19650U 88102B   25358.25460891  .00000171  00000+0  11031-3 0  9995
2 19650  71.0006 310.2144 0012375 132.1506 228.0671 14.16141827916218
INTERCOSMOS 24          
1 20261U 89080A   25358.18434287  .00000731  00000+0  20614-3 0  9992
2 20261  82.6052 153.5123 1188998 107.9830 265.4295 12.59457816657298
SL-14 R/B               
1 20262U 89080C   25358.10502495  .00000329  00000+0  95419-4 0  9991
2 20262  82.5915 221.7247 1230455 357.6173   1.9363 12.50422101650709
DELTA 1 R/B             
1 20323U 89089B   25358.15929538  .00000350  00000+0  95414-4 0  9993
2 20323  97.0743 212.5865 0069212   2.5534 357.6004 14.50581101884786
ARIANE 40 R/B           
1 20443U 90005H   25358.13628765  .00000276  00000+0  10149-3 0  9990
2 20443  98.3227  55.9914 0011186  74.8956 285.3469 14.39806519881937
